STARLINK-4517           
1 53390U 22097C   25292.03220841  .00002860  00000+0  19761-3 0  9992
2 53390  53.2209  40.0415 0001158 104.4495 255.6626 15.08858601177435
STARLINK-4521           
1 53391U 22097D   25292.02486621  .00002092  00000+0  14946-3 0  9999
2 53391  53.2182  40.0776 0001226  89.0376 271.0756 15.08848399177280
STARLINK-4535           
1 53392U 22097E   25292.01750976  .00000712  00000+0  62812-4 0  9999
2 53392  53.2196  40.1125 0001616  93.7111 266.4066 15.08841610177288
STARLINK-4530           
1 53393U 22097F   25292.02118679  .00001804  00000+0  13137-3 0  9997
2 53393  53.2189  40.0949 0001288  84.1198 275.9941 15.08848228177287
STARLINK-4544           
1 53394U 22097G   25291.96685650  .00000410  00000+0  43838-4 0  9992
2 53394  53.2186  29.9499 0001291  91.7379 268.3761 15.08843201177428
STARLINK-4534           
1 53395U 22097H   25292.01479270 -.00000325  00000+0 -23024-5 0  9992
2 53395  53.2189  40.1331 0001922  84.4568 275.6643 15.08846412177126
STARLINK-4524           
1 53396U 22097J   25291.99910467  .00000905  00000+0  74908-4 0  9995
2 53396  53.2191  40.1919 0001125  82.1979 277.9141 15.08842200177127
STARLINK-4515           
1 53397U 22097K   25292.01014018  .00002034  00000+0  14582-3 0  9993
2 53397  53.2199  40.1447 0001273  88.4630 271.6508 15.08852087177121
STARLINK-4512           
1 53398U 22097L   25291.59431238  .00000739  00000+0  64524-4 0  9995
2 53398  53.2186  42.0075 0001418  93.7401 266.3753 15.08840243177069
STARLINK-4528           
1 53399U 22097M   25292.00279155  .00004353  00000+0  29130-3 0  9990
2 53399  53.2177  40.1755 0001452  92.1448 267.9711 15.08851616177120
STARLINK-4520           
1 53400U 22097N   25291.58326450  .00001011  00000+0  81593-4 0  9996
2 53400  53.2163  42.0568 0001614 101.6743 258.4430 15.08851095177062
STARLINK-4525           
1 53401U 22097P   25291.73046415  .00001662  00000+0  12246-3 0  9994
2 53401  53.2176  41.3969 0001087  74.9728 285.1385 15.08846751177084
STARLINK-4499           
1 53402U 22097Q   25292.04326464  .00003250  00000+0  22224-3 0  9997
2 53402  53.2178  39.9960 0001712  88.7478 271.3710 15.08828296177130
STARLINK-4507           
1 53403U 22097R   25292.02218336  .00002083  00000+0  14886-3 0  9992
2 53403  53.2179  40.4358 0001322  80.7618 279.3524 15.08851955177123
STARLINK-4509           
1 53404U 22097S   25291.69553732  .00000592  00000+0  55286-4 0  9990
2 53404  53.2183  31.4867 0001333  95.7549 264.3595 15.08842196177214
STARLINK-4510           
1 53405U 22097T   25292.03958631  .00001750  00000+0  12800-3 0  9998
2 53405  53.2199  40.0077 0001753 105.3741 254.7445 15.08849584177135
