[{"OBJECT_NAME":"STARLINK-4517","OBJECT_ID":"2022-097C","EPOCH":"2025-10-19T00:46:22.806624","MEAN_MOTION":15.08858601,"ECCENTRICITY":0.00011583,"INCLINATION":53.2209,"RA_OF_ASC_NODE":40.0415,"ARG_OF_PERICENTER":104.4495,"MEAN_ANOMALY":255.6626,"EPHEMERIS_TYPE":0,"CLASSIFICATION_TYPE":"U","NORAD_CAT_ID":53390,"ELEMENT_SET_NO":999,"REV_AT_EPOCH":17743,"BSTAR":0.0001976143,"MEAN_MOTION_DOT":2.86e-5,"MEAN_MOTION_DDOT":0},{"OBJECT_NAME":"STARLINK-4521","OBJECT_ID":"2022-097D","EPOCH":"2025-10-19T00:35:48.440544","MEAN_MOTION":15.08848399,"ECCENTRICITY":0.00012266,"INCLINATION":53.2182,"RA_OF_ASC_NODE":40.0776,"ARG_OF_PERICENTER":89.0376,"MEAN_ANOMALY":271.0756,"EPHEMERIS_TYPE":0,"CLASSIFICATION_TYPE":"U","NORAD_CAT_ID":53391,"ELEMENT_SET_NO":999,"REV_AT_EPOCH":17728,"BSTAR":0.00014945787,"MEAN_MOTION_DOT":2.092e-5,"MEAN_MOTION_DDOT":0},{"OBJECT_NAME":"STARLINK-4535","OBJECT_ID":"2022-097E","EPOCH":"2025-10-19T00:25:12.843264","MEAN_MOTION":15.0884161,"ECCENTRICITY":0.00016166,"INCLINATION":53.2196,"RA_OF_ASC_NODE":40.1125,"ARG_OF_PERICENTER":93.7111,"MEAN_ANOMALY":266.4066,"EPHEMERIS_TYPE":0,"CLASSIFICATION_TYPE":"U","NORAD_CAT_ID":53392,"ELEMENT_SET_NO":999,"REV_AT_EPOCH":17728,"BSTAR":6.2811743e-5,"MEAN_MOTION_DOT":7.12e-6,"MEAN_MOTION_DDOT":0},{"OBJECT_NAME":"STARLINK-4530","OBJECT_ID":"2022-097F","EPOCH":"2025-10-19T00:30:30.538656","MEAN_MOTION":15.08848228,"ECCENTRICITY":0.00012881,"INCLINATION":53.2189,"RA_OF_ASC_NODE":40.0949,"ARG_OF_PERICENTER":84.1198,"MEAN_ANOMALY":275.9941,"EPHEMERIS_TYPE":0,"CLASSIFICATION_TYPE":"U","NORAD_CAT_ID":53393,"ELEMENT_SET_NO":999,"REV_AT_EPOCH":17728,"BSTAR":0.00013136929,"MEAN_MOTION_DOT":1.804e-5,"MEAN_MOTION_DDOT":0},{"OBJECT_NAME":"STARLINK-4544","OBJECT_ID":"2022-097G","EPOCH":"2025-10-18T23:12:16.401600","MEAN_MOTION":15.08843201,"ECCENTRICITY":0.00012917,"INCLINATION":53.2186,"RA_OF_ASC_NODE":29.9499,"ARG_OF_PERICENTER":91.7379,"MEAN_ANOMALY":268.3761,"EPHEMERIS_TYPE":0,"CLASSIFICATION_TYPE":"U","NORAD_CAT_ID":53394,"ELEMENT_SET_NO":999,"REV_AT_EPOCH":17742,"BSTAR":4.3838343e-5,"MEAN_MOTION_DOT":4.1e-6,"MEAN_MOTION_DDOT":0},{"OBJECT_NAME":"STARLINK-4534","OBJECT_ID":"2022-097H","EPOCH":"2025-10-19T00:21:18.089280","MEAN_MOTION":15.08846412,"ECCENTRICITY":0.00019222,"INCLINATION":53.2189,"RA_OF_ASC_NODE":40.1331,"ARG_OF_PERICENTER":84.4568,"MEAN_ANOMALY":275.6643,"EPHEMERIS_TYPE":0,"CLASSIFICATION_TYPE":"U","NORAD_CAT_ID":53395,"ELEMENT_SET_NO":999,"REV_AT_EPOCH":17712,"BSTAR":-2.30238e-6,"MEAN_MOTION_DOT":-3.25e-6,"MEAN_MOTION_DDOT":0},{"OBJECT_NAME":"STARLINK-4524","OBJECT_ID":"2022-097J","EPOCH":"2025-10-18T23:58:42.643488","MEAN_MOTION":15.088422,"ECCENTRICITY":0.00011259,"INCLINATION":53.2191,"RA_OF_ASC_NODE":40.1919,"ARG_OF_PERICENTER":82.1979,"MEAN_ANOMALY":277.9141,"EPHEMERIS_TYPE":0,"CLASSIFICATION_TYPE":"U","NORAD_CAT_ID":53396,"ELEMENT_SET_NO":999,"REV_AT_EPOCH":17712,"BSTAR":7.490792e-5,"MEAN_MOTION_DOT":9.05e-6,"MEAN_MOTION_DDOT":0},{"OBJECT_NAME":"STARLINK-4515","OBJECT_ID":"2022-097K","EPOCH":"2025-10-19T00:14:36.111552","MEAN_MOTION":15.08852087,"ECCENTRICITY":0.00012735,"INCLINATION":53.2199,"RA_OF_ASC_NODE":40.1447,"ARG_OF_PERICENTER":88.463,"MEAN_ANOMALY":271.6508,"EPHEMERIS_TYPE":0,"CLASSIFICATION_TYPE":"U","NORAD_CAT_ID":53397,"ELEMENT_SET_NO":999,"REV_AT_EPOCH":17712,"BSTAR":0.00014581564,"MEAN_MOTION_DOT":2.034e-5,"MEAN_MOTION_DDOT":0},{"OBJECT_NAME":"STARLINK-4512","OBJECT_ID":"2022-097L","EPOCH":"2025-10-18T14:15:48.589632","MEAN_MOTION":15.08840243,"ECCENTRICITY":0.00014185,"INCLINATION":53.2186,"RA_OF_ASC_NODE":42.0075,"ARG_OF_PERICENTER":93.7401,"MEAN_ANOMALY":266.3753,"EPHEMERIS_TYPE":0,"CLASSIFICATION_TYPE":"U","NORAD_CAT_ID":53398,"ELEMENT_SET_NO":999,"REV_AT_EPOCH":17706,"BSTAR":6.4523831e-5,"MEAN_MOTION_DOT":7.39e-6,"MEAN_MOTION_DDOT":0},{"OBJECT_NAME":"STARLINK-4528","OBJECT_ID":"2022-097M","EPOCH":"2025-10-19T00:04:01.189920","MEAN_MOTION":15.08851616,"ECCENTRICITY":0.00014523,"INCLINATION":53.2177,"RA_OF_ASC_NODE":40.1755,"ARG_OF_PERICENTER":92.1448,"MEAN_ANOMALY":267.9711,"EPHEMERIS_TYPE":0,"CLASSIFICATION_TYPE":"U","NORAD_CAT_ID":53399,"ELEMENT_SET_NO":999,"REV_AT_EPOCH":17712,"BSTAR":0.00029130212,"MEAN_MOTION_DOT":4.353e-5,"MEAN_MOTION_DDOT":0},{"OBJECT_NAME":"STARLINK-4520","OBJECT_ID":"2022-097N","EPOCH":"2025-10-18T13:59:54.052800","MEAN_MOTION":15.08851095,"ECCENTRICITY":0.00016146,"INCLINATION":53.2163,"RA_OF_ASC_NODE":42.0568,"ARG_OF_PERICENTER":101.6743,"MEAN_ANOMALY":258.443,"EPHEMERIS_TYPE":0,"CLASSIFICATION_TYPE":"U","NORAD_CAT_ID":53400,"ELEMENT_SET_NO":999,"REV_AT_EPOCH":17706,"BSTAR":8.1592541e-5,"MEAN_MOTION_DOT":1.011e-5,"MEAN_MOTION_DDOT":0},{"OBJECT_NAME":"STARLINK-4525","OBJECT_ID":"2022-097P","EPOCH":"2025-10-18T17:31:52.102560","MEAN_MOTION":15.08846751,"ECCENTRICITY":0.00010871,"INCLINATION":53.2176,"RA_OF_ASC_NODE":41.3969,"ARG_OF_PERICENTER":74.9728,"MEAN_ANOMALY":285.1385,"EPHEMERIS_TYPE":0,"CLASSIFICATION_TYPE":"U","NORAD_CAT_ID":53401,"ELEMENT_SET_NO":999,"REV_AT_EPOCH":17708,"BSTAR":0.000122456,"MEAN_MOTION_DOT":1.662e-5,"MEAN_MOTION_DDOT":0},{"OBJECT_NAME":"STARLINK-4499","OBJECT_ID":"2022-097Q","EPOCH":"2025-10-19T01:02:18.064896","MEAN_MOTION":15.08828296,"ECCENTRICITY":0.00017128,"INCLINATION":53.2178,"RA_OF_ASC_NODE":39.996,"ARG_OF_PERICENTER":88.7478,"MEAN_ANOMALY":271.371,"EPHEMERIS_TYPE":0,"CLASSIFICATION_TYPE":"U","NORAD_CAT_ID":53402,"ELEMENT_SET_NO":999,"REV_AT_EPOCH":17713,"BSTAR":0.00022224209,"MEAN_MOTION_DOT":3.25e-5,"MEAN_MOTION_DDOT":0},{"OBJECT_NAME":"STARLINK-4507","OBJECT_ID":"2022-097R","EPOCH":"2025-10-19T00:31:56.642304","MEAN_MOTION":15.08851955,"ECCENTRICITY":0.00013225,"INCLINATION":53.2179,"RA_OF_ASC_NODE":40.4358,"ARG_OF_PERICENTER":80.7618,"MEAN_ANOMALY":279.3524,"EPHEMERIS_TYPE":0,"CLASSIFICATION_TYPE":"U","NORAD_CAT_ID":53403,"ELEMENT_SET_NO":999,"REV_AT_EPOCH":17712,"BSTAR":0.00014886338,"MEAN_MOTION_DOT":2.083e-5,"MEAN_MOTION_DDOT":0},{"OBJECT_NAME":"STARLINK-4509","OBJECT_ID":"2022-097S","EPOCH":"2025-10-18T16:41:34.424448","MEAN_MOTION":15.08842196,"ECCENTRICITY":0.0001333,"INCLINATION":53.2183,"RA_OF_ASC_NODE":31.4867,"ARG_OF_PERICENTER":95.7549,"MEAN_ANOMALY":264.3595,"EPHEMERIS_TYPE":0,"CLASSIFICATION_TYPE":"U","NORAD_CAT_ID":53404,"ELEMENT_SET_NO":999,"REV_AT_EPOCH":17721,"BSTAR":5.5286079e-5,"MEAN_MOTION_DOT":5.92e-6,"MEAN_MOTION_DDOT":0},{"OBJECT_NAME":"STARLINK-4510","OBJECT_ID":"2022-097T","EPOCH":"2025-10-19T00:57:00.257184","MEAN_MOTION":15.08849584,"ECCENTRICITY":0.00017537,"INCLINATION":53.2199,"RA_OF_ASC_NODE":40.0077,"ARG_OF_PERICENTER":105.3741,"MEAN_ANOMALY":254.7445,"EPHEMERIS_TYPE":0,"CLASSIFICATION_TYPE":"U","NORAD_CAT_ID":53405,"ELEMENT_SET_NO":999,"REV_AT_EPOCH":17713,"BSTAR":0.00012800295,"MEAN_MOTION_DOT":1.75e-5,"MEAN_MOTION_DDOT":0}]
